BEIDOU-2 IGSO-5         
1 37948U 11073A   26183.72937883 -.00000128  00000+0  00000+0 0  9990
2 37948  47.6496 271.3544 0114527 222.0502 141.5350  1.00270596 53296
LUCH-5A                 
1 37951U 11074B   26191.47058737 -.00000048  00000+0  00000+0 0  9999
2 37951   8.8099  73.4648 0002561  58.0321 133.2729  1.00272611 53281
BEIDOU-2 G5             
1 38091U 12008A   26191.86363838  .00000062  00000+0  00000+0 0  9992
2 38091   3.6291  69.5487 0007375 270.5980 318.2349  1.00269215 52605
BEIDOU-2 M3             
1 38250U 12018A   26191.27788637 -.00000070  00000+0  00000+0 0  9993
2 38250  55.7367 304.0977 0020763 272.6276  87.1498  1.86230078 96370
BEIDOU-2 M4             
1 38251U 12018B   26191.21022507 -.00000069  00000+0  00000+0 0  9993
2 38251  55.6367 303.3120 0012086 272.7348  87.1429  1.86229687 96370
SES-5                   
1 38652U 12036A   26190.85501885  .00000046  00000+0  00000+0 0  9992
2 38652   0.0450 319.9907 0002058 149.7218 130.8584  1.00272424 44683
BEIDOU-2 M6             
1 38775U 12050B   26191.45682269 -.00000046  00000+0  00000+0 0  9998
2 38775  56.5644  62.1251 0013046   1.0237 359.0425  1.86230865 93746
GSAT-10                 
1 38779U 12051B   26191.48447434 -.00000154  00000+0  00000+0 0  9999
2 38779   0.1047 265.8772 0007450 186.9330  92.9780  1.00271849 50339
NAVSTAR 67 (USA 239)    
1 38833U 12053A   26191.25023182  .00000035  00000+0  00000+0 0  9994
2 38833  53.5890 142.6546 0181683  66.1329 295.7288  2.00567808 99903
GSAT0103 (GALILEO-FM3)  
1 38857U 12055A   26190.76599401 -.00000019  00000+0  00000+0 0  9992
2 38857  55.8193 100.9259 0003945 309.3641  50.6099  1.70473301 85397
BEIDOU-2 G6             
1 38953U 12059A   26191.79735307 -.00000171  00000+0  00000+0 0  9993
2 38953   4.4782  73.2665 0008932 326.5499 259.8878  1.00273674 50141
LUCH-5B                 
1 38977U 12061A   26191.42102866 -.00000136  00000+0  00000+0 0  9991
2 38977  10.5304  49.6456 0003762 144.0609 229.9565  1.00271079 49845
COSMOS 2485 [GLONASS-M] 
1 39155U 13019A   26190.90372010 -.00000024  00000+0  00000+0 0  9992
2 39155  65.4318  72.8427 0022762 231.6212 128.2346  2.13103398102760
NAVSTAR 68 (USA 242)    
1 39166U 13023A   26191.11781976  .00000003  00000+0  00000+0 0  9994
2 39166  54.4865 268.0387 0141385  51.1056 310.2117  2.00563312 96342
IRNSS-1A                
1 39199U 13034A   26191.72043648  .00000047  00000+0  00000+0 0  9994
2 39199  35.7704  63.5328 0017567 183.4462 356.2994  1.00281941 47601
NAVSTAR 69 (USA 248)    
1 39533U 14008A   26191.11963969  .00000048  00000+0  00000+0 0  9999
2 39533  53.6572 148.3845 0084176 231.5339 127.6822  2.00561211 90148
ASTRA 5B                
1 39617U 14011B   26191.50028013  .00000147  00000+0  00000+0 0  9991
2 39617   0.0626 314.2374 0001784 162.6118  15.1666  1.00271823 44907
COSMOS 2492 [GLONASS-M] 
1 39620U 14012A   26191.33183302 -.00000060  00000+0  00000+0 0  9995
2 39620  65.2829 313.1500 0010276 319.4135  40.5159  2.13103364 95730
IRNSS-1B                
1 39635U 14017A   26191.72026316  .00000149  00000+0  00000+0 0  9997
2 39635  28.8825 239.9967 0022328 191.5584 171.4704  1.00274378 45034
LUCH-5V                 
1 39727U 14023A   26191.82455689 -.00000265  00000+0  00000+0 0  9996
2 39727   5.1873  69.4951 0001989  72.1798 178.5837  1.00275574 44591
NAVSTAR 70 (USA 251)    
1 39741U 14026A   26191.39556233 -.00000080  00000+0  00000+0 0  9999
2 39741  56.4859 330.6145 0038119 325.9139  33.8410  2.00559176 89000
COSMOS 2500 [GLONASS-M] 
1 40001U 14032A   26190.09353818 -.00000056  00000+0  00000+0 0  9990
2 40001  65.2189 312.9376 0008037 189.2565 170.7378  2.13106082 93922
NAVSTAR 71 (USA 256)    
1 40105U 14045A   26190.98872161 -.00000037  00000+0  00000+0 0  9993
2 40105  55.3675  87.5565 0034204 118.3307 242.0477  2.00559876 86535
GSAT0201 (GALILEO 5)    
1 40128U 14050A   26191.05431484 -.00000022  00000+0  00000+0 0  9996
2 40128  48.8500 272.4979 1677815 180.2883 179.6634  1.85519753 78743
GSAT0202 (GALILEO 6)    
1 40129U 14050B   26191.30977287 -.00000018  00000+0  00000+0 0  9996
2 40129  48.8671 271.5730 1679021 181.0029 178.6755  1.85520571 80915
IRNSS-1C                
1 40269U 14061A   26191.79717975 -.00000160  00000+0  00000+0 0  9990
2 40269   6.5761  88.4824 0022146   4.9478 205.2945  1.00273045 42925
NAVSTAR 72 (USA 258)    
1 40294U 14068A   26189.85970982 -.00000050  00000+0  00000+0 0  9996
2 40294  57.0024  30.1204 0067446  71.3730 289.4121  2.00577411 85644
COSMOS 2501 [GLONASS-K] 
1 40315U 14075A   26191.29438447  .00000118  00000+0  00000+0 0  9998
2 40315  63.6181 189.5721 0022650 212.5784 147.3100  2.13101344 90348
NAVSTAR 73 (USA 260)    
1 40534U 15013A   26191.49695016  .00000110  00000+0  00000+0 0  9995
2 40534  53.1665 203.2135 0110191  40.3325 320.5274  2.00549902 82295
GSAT0203 (GALILEO 7)    
1 40544U 15017A   26191.08953242 -.00000080  00000+0  00000+0 0  9990
2 40544  56.7788 340.9723 0002503 258.1316 101.8369  1.70476121 69590
GSAT0204 (GALILEO 8)    
1 40545U 15017B   26191.34538535 -.00000081  00000+0  00000+0 0  9995
2 40545  56.7851 340.9839 0002638 235.0424 124.9287  1.70475622 32649
